[{"OBJECT_NAME":"JILIN-1 07","OBJECT_ID":"2018-008E","EPOCH":"2026-03-09T22:24:26.445888","MEAN_MOTION":15.32987507,"ECCENTRICITY":0.00101791,"INCLINATION":97.1876,"RA_OF_ASC_NODE":91.5817,"ARG_OF_PERICENTER":62.7832,"MEAN_ANOMALY":297.4447,"EPHEMERIS_TYPE":0,"CLASSIFICATION_TYPE":"U","NORAD_CAT_ID":43159,"ELEMENT_SET_NO":999,"REV_AT_EPOCH":44978,"BSTAR":0.00036439521,"MEAN_MOTION_DOT":0.00011559,"MEAN_MOTION_DDOT":0},{"OBJECT_NAME":"STARLINK-31117","OBJECT_ID":"2024-011M","EPOCH":"2026-03-09T03:27:08.534592","MEAN_MOTION":15.30189861,"ECCENTRICITY":0.00010903,"INCLINATION":53.1623,"RA_OF_ASC_NODE":16.4221,"ARG_OF_PERICENTER":73.5689,"MEAN_ANOMALY":286.5432,"EPHEMERIS_TYPE":0,"CLASSIFICATION_TYPE":"U","NORAD_CAT_ID":58776,"ELEMENT_SET_NO":999,"REV_AT_EPOCH":12018,"BSTAR":3.6721194e-5,"MEAN_MOTION_DOT":7.28e-6,"MEAN_MOTION_DDOT":0}]
